[{"OBJECT_NAME":"STARLINK-32100","OBJECT_ID":"2024-086E","EPOCH":"2026-03-20T10:41:53.762496","MEAN_MOTION":15.27576275,"ECCENTRICITY":0.0001278,"INCLINATION":43.0042,"RA_OF_ASC_NODE":341.046,"ARG_OF_PERICENTER":262.4676,"MEAN_ANOMALY":97.6031,"EPHEMERIS_TYPE":0,"CLASSIFICATION_TYPE":"U","NORAD_CAT_ID":59686,"ELEMENT_SET_NO":999,"REV_AT_EPOCH":10596,"BSTAR":9.327564e-6,"MEAN_MOTION_DOT":-5.0e-8,"MEAN_MOTION_DDOT":0},{"OBJECT_NAME":"STARLINK-32089","OBJECT_ID":"2024-086F","EPOCH":"2026-03-20T19:13:39.543168","MEAN_MOTION":15.27581741,"ECCENTRICITY":9.37e-5,"INCLINATION":43.0022,"RA_OF_ASC_NODE":356.9642,"ARG_OF_PERICENTER":276.8252,"MEAN_ANOMALY":83.2493,"EPHEMERIS_TYPE":0,"CLASSIFICATION_TYPE":"U","NORAD_CAT_ID":59687,"ELEMENT_SET_NO":999,"REV_AT_EPOCH":10581,"BSTAR":8.1807e-5,"MEAN_MOTION_DOT":1.99e-5,"MEAN_MOTION_DDOT":0},{"OBJECT_NAME":"STARLINK-32103","OBJECT_ID":"2024-086G","EPOCH":"2026-03-20T17:39:44.593056","MEAN_MOTION":15.27579379,"ECCENTRICITY":0.0001451,"INCLINATION":43.0042,"RA_OF_ASC_NODE":346.9511,"ARG_OF_PERICENTER":271.7237,"MEAN_ANOMALY":88.3449,"EPHEMERIS_TYPE":0,"CLASSIFICATION_TYPE":"U","NORAD_CAT_ID":59688,"ELEMENT_SET_NO":999,"REV_AT_EPOCH":10592,"BSTAR":4.0434e-5,"MEAN_MOTION_DOT":8.51e-6,"MEAN_MOTION_DDOT":0},{"OBJECT_NAME":"STARLINK-32105","OBJECT_ID":"2024-086H","EPOCH":"2026-03-20T11:13:37.792128","MEAN_MOTION":15.27582444,"ECCENTRICITY":0.00014952,"INCLINATION":43.0048,"RA_OF_ASC_NODE":358.7603,"ARG_OF_PERICENTER":274.6184,"MEAN_ANOMALY":85.4497,"EPHEMERIS_TYPE":0,"CLASSIFICATION_TYPE":"U","NORAD_CAT_ID":59689,"ELEMENT_SET_NO":999,"REV_AT_EPOCH":10576,"BSTAR":-2.2581672e-5,"MEAN_MOTION_DOT":-8.84e-6,"MEAN_MOTION_DDOT":0},{"OBJECT_NAME":"STARLINK-32106","OBJECT_ID":"2024-086J","EPOCH":"2026-03-20T19:48:08.943264","MEAN_MOTION":15.27576722,"ECCENTRICITY":0.0001289,"INCLINATION":43.0019,"RA_OF_ASC_NODE":349.3571,"ARG_OF_PERICENTER":271.4483,"MEAN_ANOMALY":88.6221,"EPHEMERIS_TYPE":0,"CLASSIFICATION_TYPE":"U","NORAD_CAT_ID":59690,"ELEMENT_SET_NO":999,"REV_AT_EPOCH":10590,"BSTAR":5.1062e-5,"MEAN_MOTION_DOT":1.143e-5,"MEAN_MOTION_DDOT":0},{"OBJECT_NAME":"STARLINK-32090","OBJECT_ID":"2024-086K","EPOCH":"2026-03-20T03:03:51.143328","MEAN_MOTION":15.27581278,"ECCENTRICITY":0.00017216,"INCLINATION":43.0054,"RA_OF_ASC_NODE":4.8216,"ARG_OF_PERICENTER":272.2488,"MEAN_ANOMALY":87.8166,"EPHEMERIS_TYPE":0,"CLASSIFICATION_TYPE":"U","NORAD_CAT_ID":59691,"ELEMENT_SET_NO":999,"REV_AT_EPOCH":10566,"BSTAR":9.0682919e-5,"MEAN_MOTION_DOT":2.234e-5,"MEAN_MOTION_DDOT":0},{"OBJECT_NAME":"STARLINK-32088","OBJECT_ID":"2024-086M","EPOCH":"2026-03-20T19:59:14.987040","MEAN_MOTION":15.27576335,"ECCENTRICITY":0.0001528,"INCLINATION":43.0023,"RA_OF_ASC_NODE":349.4132,"ARG_OF_PERICENTER":285.374,"MEAN_ANOMALY":74.6943,"EPHEMERIS_TYPE":0,"CLASSIFICATION_TYPE":"U","NORAD_CAT_ID":59693,"ELEMENT_SET_NO":999,"REV_AT_EPOCH":10590,"BSTAR":2.871e-5,"MEAN_MOTION_DOT":5.28e-6,"MEAN_MOTION_DDOT":0},{"OBJECT_NAME":"STARLINK-32107","OBJECT_ID":"2024-086N","EPOCH":"2026-03-20T04:20:14.738496","MEAN_MOTION":15.27555808,"ECCENTRICITY":0.00018359,"INCLINATION":43.0027,"RA_OF_ASC_NODE":0.8988,"ARG_OF_PERICENTER":251.2611,"MEAN_ANOMALY":108.8042,"EPHEMERIS_TYPE":0,"CLASSIFICATION_TYPE":"U","NORAD_CAT_ID":59694,"ELEMENT_SET_NO":999,"REV_AT_EPOCH":10571,"BSTAR":-9.3386516e-5,"MEAN_MOTION_DOT":-2.829e-5,"MEAN_MOTION_DDOT":0},{"OBJECT_NAME":"STARLINK-32104","OBJECT_ID":"2024-086P","EPOCH":"2026-03-20T04:19:02.817408","MEAN_MOTION":15.27568068,"ECCENTRICITY":0.00012797,"INCLINATION":43.0048,"RA_OF_ASC_NODE":357.3624,"ARG_OF_PERICENTER":273.4504,"MEAN_ANOMALY":86.6202,"EPHEMERIS_TYPE":0,"CLASSIFICATION_TYPE":"U","NORAD_CAT_ID":59695,"ELEMENT_SET_NO":999,"REV_AT_EPOCH":10575,"BSTAR":-3.1615126e-5,"MEAN_MOTION_DOT":-1.132e-5,"MEAN_MOTION_DDOT":0},{"OBJECT_NAME":"STARLINK-32094","OBJECT_ID":"2024-086Q","EPOCH":"2026-03-20T20:07:18.990336","MEAN_MOTION":15.2757964,"ECCENTRICITY":0.0001501,"INCLINATION":43.0052,"RA_OF_ASC_NODE":357.2336,"ARG_OF_PERICENTER":257.7698,"MEAN_ANOMALY":102.2985,"EPHEMERIS_TYPE":0,"CLASSIFICATION_TYPE":"U","NORAD_CAT_ID":59696,"ELEMENT_SET_NO":999,"REV_AT_EPOCH":10581,"BSTAR":4.152e-5,"MEAN_MOTION_DOT":8.8e-6,"MEAN_MOTION_DDOT":0},{"OBJECT_NAME":"STARLINK-32099","OBJECT_ID":"2024-086R","EPOCH":"2026-03-20T11:19:07.103136","MEAN_MOTION":15.2750405,"ECCENTRICITY":0.0001719,"INCLINATION":43.004,"RA_OF_ASC_NODE":358.7878,"ARG_OF_PERICENTER":276.7816,"MEAN_ANOMALY":83.284,"EPHEMERIS_TYPE":0,"CLASSIFICATION_TYPE":"U","NORAD_CAT_ID":59697,"ELEMENT_SET_NO":999,"REV_AT_EPOCH":10576,"BSTAR":-0.0010319,"MEAN_MOTION_DOT":-0.00028483,"MEAN_MOTION_DDOT":0},{"OBJECT_NAME":"STARLINK-32096","OBJECT_ID":"2024-086S","EPOCH":"2026-03-19T23:06:16.665696","MEAN_MOTION":15.27572421,"ECCENTRICITY":0.00014343,"INCLINATION":43.0094,"RA_OF_ASC_NODE":1.8461,"ARG_OF_PERICENTER":264.4706,"MEAN_ANOMALY":95.5982,"EPHEMERIS_TYPE":0,"CLASSIFICATION_TYPE":"U","NORAD_CAT_ID":59698,"ELEMENT_SET_NO":999,"REV_AT_EPOCH":10568,"BSTAR":-0.00013801522,"MEAN_MOTION_DOT":-4.057e-5,"MEAN_MOTION_DDOT":0},{"OBJECT_NAME":"STARLINK-32102","OBJECT_ID":"2024-086T","EPOCH":"2026-03-20T19:19:12.673920","MEAN_MOTION":15.27597428,"ECCENTRICITY":7.32e-5,"INCLINATION":43.0005,"RA_OF_ASC_NODE":356.9902,"ARG_OF_PERICENTER":282.0443,"MEAN_ANOMALY":78.0327,"EPHEMERIS_TYPE":0,"CLASSIFICATION_TYPE":"U","NORAD_CAT_ID":59699,"ELEMENT_SET_NO":999,"REV_AT_EPOCH":10581,"BSTAR":0.00067977,"MEAN_MOTION_DOT":0.000185,"MEAN_MOTION_DDOT":0},{"OBJECT_NAME":"STARLINK-32092","OBJECT_ID":"2024-086U","EPOCH":"2026-03-20T19:45:07.469568","MEAN_MOTION":15.27567115,"ECCENTRICITY":0.000122,"INCLINATION":43.0045,"RA_OF_ASC_NODE":357.1221,"ARG_OF_PERICENTER":271.0816,"MEAN_ANOMALY":88.9896,"EPHEMERIS_TYPE":0,"CLASSIFICATION_TYPE":"U","NORAD_CAT_ID":59700,"ELEMENT_SET_NO":999,"REV_AT_EPOCH":10581,"BSTAR":0.00017084,"MEAN_MOTION_DOT":4.44e-5,"MEAN_MOTION_DDOT":0},{"OBJECT_NAME":"STARLINK-32093","OBJECT_ID":"2024-086V","EPOCH":"2026-03-20T19:41:24.648288","MEAN_MOTION":15.27579907,"ECCENTRICITY":0.000112,"INCLINATION":43.0044,"RA_OF_ASC_NODE":357.1017,"ARG_OF_PERICENTER":255.5204,"MEAN_ANOMALY":104.5524,"EPHEMERIS_TYPE":0,"CLASSIFICATION_TYPE":"U","NORAD_CAT_ID":59701,"ELEMENT_SET_NO":999,"REV_AT_EPOCH":10581,"BSTAR":4.0515e-5,"MEAN_MOTION_DOT":8.53e-6,"MEAN_MOTION_DDOT":0},{"OBJECT_NAME":"STARLINK-32087","OBJECT_ID":"2024-086W","EPOCH":"2026-03-20T19:24:46.146816","MEAN_MOTION":15.27583938,"ECCENTRICITY":0.0001038,"INCLINATION":43.0034,"RA_OF_ASC_NODE":357.0184,"ARG_OF_PERICENTER":279.0967,"MEAN_ANOMALY":80.9767,"EPHEMERIS_TYPE":0,"CLASSIFICATION_TYPE":"U","NORAD_CAT_ID":59702,"ELEMENT_SET_NO":999,"REV_AT_EPOCH":10581,"BSTAR":3.5952e-5,"MEAN_MOTION_DOT":7.27e-6,"MEAN_MOTION_DDOT":0},{"OBJECT_NAME":"STARLINK-32086","OBJECT_ID":"2024-086X","EPOCH":"2026-03-20T18:58:51.439296","MEAN_MOTION":15.2758471,"ECCENTRICITY":7.48e-5,"INCLINATION":43.0015,"RA_OF_ASC_NODE":356.8852,"ARG_OF_PERICENTER":301.8882,"MEAN_ANOMALY":58.1897,"EPHEMERIS_TYPE":0,"CLASSIFICATION_TYPE":"U","NORAD_CAT_ID":59703,"ELEMENT_SET_NO":999,"REV_AT_EPOCH":10581,"BSTAR":7.8121e-6,"MEAN_MOTION_DOT":-4.7e-7,"MEAN_MOTION_DDOT":0},{"OBJECT_NAME":"STARLINK-32098","OBJECT_ID":"2024-086Y","EPOCH":"2026-03-20T19:56:13.285248","MEAN_MOTION":15.27589899,"ECCENTRICITY":0.0001367,"INCLINATION":43.0048,"RA_OF_ASC_NODE":357.1796,"ARG_OF_PERICENTER":250.3305,"MEAN_ANOMALY":109.7399,"EPHEMERIS_TYPE":0,"CLASSIFICATION_TYPE":"U","NORAD_CAT_ID":59704,"ELEMENT_SET_NO":999,"REV_AT_EPOCH":10581,"BSTAR":-6.985e-5,"MEAN_MOTION_DOT":-2.184e-5,"MEAN_MOTION_DDOT":0},{"OBJECT_NAME":"STARLINK-11107 [DTC]","OBJECT_ID":"2024-088A","EPOCH":"2026-03-20T19:31:13.979136","MEAN_MOTION":15.69713875,"ECCENTRICITY":0.0001084,"INCLINATION":53.1596,"RA_OF_ASC_NODE":271.1288,"ARG_OF_PERICENTER":102.7349,"MEAN_ANOMALY":257.379,"EPHEMERIS_TYPE":0,"CLASSIFICATION_TYPE":"U","NORAD_CAT_ID":59708,"ELEMENT_SET_NO":999,"REV_AT_EPOCH":10800,"BSTAR":1.2912e-5,"MEAN_MOTION_DOT":9.76e-6,"MEAN_MOTION_DDOT":0},{"OBJECT_NAME":"STARLINK-11088 [DTC]","OBJECT_ID":"2024-088B","EPOCH":"2026-03-20T19:17:15.210528","MEAN_MOTION":15.69720595,"ECCENTRICITY":5.8e-5,"INCLINATION":53.1564,"RA_OF_ASC_NODE":271.7883,"ARG_OF_PERICENTER":62.9733,"MEAN_ANOMALY":297.1344,"EPHEMERIS_TYPE":0,"CLASSIFICATION_TYPE":"U","NORAD_CAT_ID":59709,"ELEMENT_SET_NO":999,"REV_AT_EPOCH":10801,"BSTAR":0.00037841,"MEAN_MOTION_DOT":0.00045527,"MEAN_MOTION_DDOT":0},{"OBJECT_NAME":"STARLINK-11092 [DTC]","OBJECT_ID":"2024-088C","EPOCH":"2026-03-19T23:18:17.616672","MEAN_MOTION":15.69720432,"ECCENTRICITY":8.854e-5,"INCLINATION":53.1596,"RA_OF_ASC_NODE":275.8362,"ARG_OF_PERICENTER":100.2593,"MEAN_ANOMALY":259.8525,"EPHEMERIS_TYPE":0,"CLASSIFICATION_TYPE":"U","NORAD_CAT_ID":59710,"ELEMENT_SET_NO":999,"REV_AT_EPOCH":10788,"BSTAR":1.298883e-6,"MEAN_MOTION_DOT":-4.31e-6,"MEAN_MOTION_DDOT":0},{"OBJECT_NAME":"STARLINK-11082 [DTC]","OBJECT_ID":"2024-088D","EPOCH":"2026-03-20T12:56:23.496576","MEAN_MOTION":15.69706038,"ECCENTRICITY":8.267e-5,"INCLINATION":53.159,"RA_OF_ASC_NODE":272.9773,"ARG_OF_PERICENTER":79.3883,"MEAN_ANOMALY":280.7228,"EPHEMERIS_TYPE":0,"CLASSIFICATION_TYPE":"U","NORAD_CAT_ID":59711,"ELEMENT_SET_NO":999,"REV_AT_EPOCH":10797,"BSTAR":5.39479e-6,"MEAN_MOTION_DOT":6.5e-7,"MEAN_MOTION_DDOT":0},{"OBJECT_NAME":"STARLINK-11108 [DTC]","OBJECT_ID":"2024-088E","EPOCH":"2026-03-19T18:29:07.624896","MEAN_MOTION":15.69707389,"ECCENTRICITY":8.41e-5,"INCLINATION":53.1601,"RA_OF_ASC_NODE":276.7127,"ARG_OF_PERICENTER":96.0153,"MEAN_ANOMALY":264.0961,"EPHEMERIS_TYPE":0,"CLASSIFICATION_TYPE":"U","NORAD_CAT_ID":59712,"ELEMENT_SET_NO":999,"REV_AT_EPOCH":10785,"BSTAR":5.351686e-6,"MEAN_MOTION_DOT":6.0e-7,"MEAN_MOTION_DDOT":0}]
